start=new Date('2022-08-19T00:00:00.000Z').valueOf();
sats=[{"PERIAPSIS":"546.130","EPHEMERIS_TYPE":"0","COUNTRY_CODE":"US","EPOCH":"2022-08-18T20:06:01.901664","SITE":"AFETR","TLE_LINE1":"1 47357U 21005J   22230.83752201  .00000960  00000-0  83352-4 0  9991","MEAN_MOTION_DOT":"0.00000960","PERIOD":"95.592","ECCENTRICITY":"0.00015330","OBJECT_NAME":"STARLINK-2050","RCS_SIZE":"LARGE","MEAN_MOTION":"15.06407019","APOAPSIS":"548.254","REF_FRAME":"TEME","MEAN_MOTION_DDOT":"0.0000000000000","TIME_SYSTEM":"UTC","ELEMENT_SET_NO":"999","REV_AT_EPOCH":"8727","CENTER_NAME":"EARTH","LAUNCH_DATE":"2021-01-20","ARG_OF_PERICENTER":"82.6344","OBJECT_TYPE":"PAYLOAD","CLASSIFICATION_TYPE":"U","MEAN_ELEMENT_THEORY":"SGP4","FILE":"3539615","RA_OF_ASC_NODE":"132.3938","TLE_LINE2":"2 47357  53.0557 132.3938 0001533  82.6344 277.4819 15.06407019 87276","INCLINATION":"53.0557","BSTAR":"0.00008335200000","SEMIMAJOR_AXIS":"6925.327","GP_ID":"210474594","MEAN_ANOMALY":"277.4819","DECAY_DATE":null,"OBJECT_ID":"2021-005J","NORAD_CAT_ID":"47357"},{"MEAN_ELEMENT_THEORY":"SGP4","CLASSIFICATION_TYPE":"U","OBJECT_TYPE":"PAYLOAD","LAUNCH_DATE":"2021-01-20","ARG_OF_PERICENTER":"69.8222","CENTER_NAME":"EARTH","REV_AT_EPOCH":"8766","NORAD_CAT_ID":"47358","OBJECT_ID":"2021-005K","DECAY_DATE":null,"MEAN_ANOMALY":"290.2927","GP_ID":"210474843","SEMIMAJOR_AXIS":"6925.341","BSTAR":"0.00015754000000","INCLINATION":"53.0559","TLE_LINE2":"2 47358  53.0559 103.2806 0001490  69.8222 290.2927 15.06402581 87669","RA_OF_ASC_NODE":"103.2806","FILE":"3539615","TLE_LINE1":"1 47358U 21005K   22230.64030160  .00002066  00000-0  15754-3 0  9993","SITE":"AFETR","EPOCH":"2022-08-18T15:22:02.058240","COUNTRY_CODE":"US","EPHEMERIS_TYPE":"0","PERIAPSIS":"546.174","ELEMENT_SET_NO":"999","TIME_SYSTEM":"UTC","MEAN_MOTION_DDOT":"0.0000000000000","REF_FRAME":"TEME","APOAPSIS":"548.238","MEAN_MOTION":"15.06402581","RCS_SIZE":"LARGE","PERIOD":"95.592","MEAN_MOTION_DOT":"0.00002066","ECCENTRICITY":"0.00014900","OBJECT_NAME":"STARLINK-2055"},{"PERIAPSIS":"546.185","EPHEMERIS_TYPE":"0","COUNTRY_CODE":"US","EPOCH":"2022-08-18T02:54:20.749536","SITE":"AFETR","TLE_LINE1":"1 47359U 21005L   22230.12107349  .00002789  00000-0  20598-3 0  9995","MEAN_MOTION_DOT":"0.00002789","PERIOD":"95.591","ECCENTRICITY":"0.00014350","OBJECT_NAME":"STARLINK-2069","RCS_SIZE":"LARGE","MEAN_MOTION":"15.06411495","APOAPSIS":"548.172","REF_FRAME":"TEME","MEAN_MOTION_DDOT":"0.0000000000000","TIME_SYSTEM":"UTC","ELEMENT_SET_NO":"999","REV_AT_EPOCH":"8723","CENTER_NAME":"EARTH","ARG_OF_PERICENTER":"74.4747","LAUNCH_DATE":"2021-01-20","OBJECT_TYPE":"PAYLOAD","CLASSIFICATION_TYPE":"U","MEAN_ELEMENT_THEORY":"SGP4","RA_OF_ASC_NODE":"130.6032","FILE":"3539281","TLE_LINE2":"2 47359  53.0546 130.6032 0001435  74.4747 285.6400 15.06411495 87235","INCLINATION":"53.0546","BSTAR":"0.00020598000000","SEMIMAJOR_AXIS":"6925.313","GP_ID":"210440862","MEAN_ANOMALY":"285.6400","DECAY_DATE":null,"OBJECT_ID":"2021-005L","NORAD_CAT_ID":"47359"},{"PERIAPSIS":"546.088","EPHEMERIS_TYPE":"0","SITE":"AFETR","TLE_LINE1":"1 47360U 21005M   22230.85733353  .00003041  00000-0  22290-3 0  9990","COUNTRY_CODE":"US","EPOCH":"2022-08-18T20:34:33.616992","RCS_SIZE":"LARGE","MEAN_MOTION":"15.06407229","APOAPSIS":"548.295","PERIOD":"95.592","MEAN_MOTION_DOT":"0.00003041","OBJECT_NAME":"STARLINK-2070","ECCENTRICITY":"0.00015940","MEAN_MOTION_DDOT":"0.0000000000000","TIME_SYSTEM":"UTC","ELEMENT_SET_NO":"999","REF_FRAME":"TEME","OBJECT_TYPE":"PAYLOAD","REV_AT_EPOCH":"8777","CENTER_NAME":"EARTH","ARG_OF_PERICENTER":"76.3767","LAUNCH_DATE":"2021-01-20","MEAN_ELEMENT_THEORY":"SGP4","CLASSIFICATION_TYPE":"U","TLE_LINE2":"2 47360  53.0544  97.3146 0001594  76.3767 283.7400 15.06407229 87777","INCLINATION":"53.0544","BSTAR":"0.00022290000000","SEMIMAJOR_AXIS":"6925.326","GP_ID":"210474342","RA_OF_ASC_NODE":"97.3146","FILE":"3539615","OBJECT_ID":"2021-005M","NORAD_CAT_ID":"47360","MEAN_ANOMALY":"283.7400","DECAY_DATE":null},{"MEAN_MOTION_DOT":"0.00001939","PERIOD":"95.593","ECCENTRICITY":"0.00013150","OBJECT_NAME":"STARLINK-2071","APOAPSIS":"548.156","RCS_SIZE":"LARGE","MEAN_MOTION":"15.06389679","REF_FRAME":"TEME","TIME_SYSTEM":"UTC","ELEMENT_SET_NO":"999","MEAN_MOTION_DDOT":"0.0000000000000","PERIAPSIS":"546.335","EPHEMERIS_TYPE":"0","COUNTRY_CODE":"US","EPOCH":"2022-08-18T17:09:34.113024","SITE":"AFETR","TLE_LINE1":"1 47361U 21005N   22230.71497816  .00001939  00000-0  14909-3 0  9999","RA_OF_ASC_NODE":"102.9525","FILE":"3539615","BSTAR":"0.00014909000000","SEMIMAJOR_AXIS":"6925.380","GP_ID":"210475094","TLE_LINE2":"2 47361  53.0551 102.9525 0001315  85.2210 274.8929 15.06389679 87677","INCLINATION":"53.0551","MEAN_ANOMALY":"274.8929","DECAY_DATE":null,"OBJECT_ID":"2021-005N","NORAD_CAT_ID":"47361","CENTER_NAME":"EARTH","LAUNCH_DATE":"2021-01-20","ARG_OF_PERICENTER":"85.2210","REV_AT_EPOCH":"8767","OBJECT_TYPE":"PAYLOAD","CLASSIFICATION_TYPE":"U","MEAN_ELEMENT_THEORY":"SGP4"},{"OBJECT_TYPE":"PAYLOAD","REV_AT_EPOCH":"8717","ARG_OF_PERICENTER":"74.7030","LAUNCH_DATE":"2021-01-20","CENTER_NAME":"EARTH","MEAN_ELEMENT_THEORY":"SGP4","CLASSIFICATION_TYPE":"U","INCLINATION":"53.0550","TLE_LINE2":"2 47362  53.0550 135.4259 0001463  74.7030 285.4120 15.06411042 87175","GP_ID":"210440114","SEMIMAJOR_AXIS":"6925.315","BSTAR":"-0.00015969000000","FILE":"3539281","RA_OF_ASC_NODE":"135.4259","NORAD_CAT_ID":"47362","OBJECT_ID":"2021-005P","DECAY_DATE":null,"MEAN_ANOMALY":"285.4120","EPHEMERIS_TYPE":"0","PERIAPSIS":"546.167","TLE_LINE1":"1 47362U 21005P   22230.16300229 -.00002660  00000-0 -15969-3 0  9991","SITE":"AFETR","EPOCH":"2022-08-18T03:54:43.397856","COUNTRY_CODE":"US","MEAN_MOTION":"15.06411042","RCS_SIZE":"LARGE","APOAPSIS":"548.193","PERIOD":"95.591","OBJECT_NAME":"STARLINK-2076","MEAN_MOTION_DOT":"-0.00002660","ECCENTRICITY":"0.00014630","MEAN_MOTION_DDOT":"0.0000000000000","ELEMENT_SET_NO":"999","TIME_SYSTEM":"UTC","REF_FRAME":"TEME"},{"FILE":"3539281","RA_OF_ASC_NODE":"135.3917","SEMIMAJOR_AXIS":"6925.380","GP_ID":"210440363","BSTAR":"0.00020656000000","INCLINATION":"53.0543","TLE_LINE2":"2 47363  53.0543 135.3917 0001390  64.0074 296.1058 15.06389860 87178","DECAY_DATE":null,"MEAN_ANOMALY":"296.1058","NORAD_CAT_ID":"47363","OBJECT_ID":"2021-005Q","LAUNCH_DATE":"2021-01-20","ARG_OF_PERICENTER":"64.0074","CENTER_NAME":"EARTH","REV_AT_EPOCH":"8717","OBJECT_TYPE":"PAYLOAD","CLASSIFICATION_TYPE":"U","MEAN_ELEMENT_THEORY":"SGP4","MEAN_MOTION_DOT":"0.00002796","PERIOD":"95.593","ECCENTRICITY":"0.00013900","OBJECT_NAME":"STARLINK-2077","APOAPSIS":"548.207","RCS_SIZE":"LARGE","MEAN_MOTION":"15.06389860","REF_FRAME":"TEME","ELEMENT_SET_NO":"999","TIME_SYSTEM":"UTC","MEAN_MOTION_DDOT":"0.0000000000000","EPHEMERIS_TYPE":"0","PERIAPSIS":"546.282","EPOCH":"2022-08-18T04:00:01.921824","COUNTRY_CODE":"US","TLE_LINE1":"1 47363U 21005Q   22230.16668891  .00002796  00000-0  20656-3 0  9991","SITE":"AFETR"},{"APOAPSIS":"548.066","MEAN_MOTION":"15.06410228","RCS_SIZE":"LARGE","MEAN_MOTION_DOT":"0.00001943","PERIOD":"95.591","OBJECT_NAME":"STARLINK-2081","ECCENTRICITY":"0.00012760","TIME_SYSTEM":"UTC","ELEMENT_SET_NO":"999","MEAN_MOTION_DDOT":"0.0000000000000","REF_FRAME":"TEME","PERIAPSIS":"546.299","EPHEMERIS_TYPE":"0","SITE":"AFETR","TLE_LINE1":"1 47366U 21005T   22230.85594944  .00001943  00000-0  14927-3 0  9994","COUNTRY_CODE":"US","EPOCH":"2022-08-18T20:32:34.031616","BSTAR":"0.00014927000000","GP_ID":"210473843","SEMIMAJOR_AXIS":"6925.317","TLE_LINE2":"2 47366  53.0543 132.3162 0001276  89.9317 270.1818 15.06410228 87279","INCLINATION":"53.0543","RA_OF_ASC_NODE":"132.3162","FILE":"3539615","OBJECT_ID":"2021-005T","NORAD_CAT_ID":"47366","MEAN_ANOMALY":"270.1818","DECAY_DATE":null,"OBJECT_TYPE":"PAYLOAD","CENTER_NAME":"EARTH","LAUNCH_DATE":"2021-01-20","ARG_OF_PERICENTER":"89.9317","REV_AT_EPOCH":"8727","MEAN_ELEMENT_THEORY":"SGP4","CLASSIFICATION_TYPE":"U"},{"MEAN_ELEMENT_THEORY":"SGP4","CLASSIFICATION_TYPE":"U","OBJECT_TYPE":"PAYLOAD","ARG_OF_PERICENTER":"66.4328","LAUNCH_DATE":"2021-01-20","CENTER_NAME":"EARTH","REV_AT_EPOCH":"8717","NORAD_CAT_ID":"47367","OBJECT_ID":"2021-005U","DECAY_DATE":null,"MEAN_ANOMALY":"293.6823","GP_ID":"210441846","SEMIMAJOR_AXIS":"6925.350","BSTAR":"0.00013777000000","INCLINATION":"53.0530","TLE_LINE2":"2 47367  53.0530 135.4659 0001541  66.4328 293.6823 15.06399565 87173","RA_OF_ASC_NODE":"135.4659","FILE":"3539281","TLE_LINE1":"1 47367U 21005U   22230.15194298  .00001771  00000-0  13777-3 0  9997","SITE":"AFETR","EPOCH":"2022-08-18T03:38:47.873472","COUNTRY_CODE":"US","EPHEMERIS_TYPE":"0","PERIAPSIS":"546.148","ELEMENT_SET_NO":"999","TIME_SYSTEM":"UTC","MEAN_MOTION_DDOT":"0.0000000000000","REF_FRAME":"TEME","APOAPSIS":"548.282","MEAN_MOTION":"15.06399565","RCS_SIZE":"LARGE","ECCENTRICITY":"0.00015410","PERIOD":"95.592","MEAN_MOTION_DOT":"0.00001771","OBJECT_NAME":"STARLINK-2082"},{"COUNTRY_CODE":"US","EPOCH":"2022-08-18T03:28:11.496864","SITE":"AFETR","TLE_LINE1":"1 47368U 21005V   22230.14457751  .00000706  00000-0  66280-4 0  9998","PERIAPSIS":"546.179","EPHEMERIS_TYPE":"0","REF_FRAME":"TEME","MEAN_MOTION_DDOT":"0.0000000000000","TIME_SYSTEM":"UTC","ELEMENT_SET_NO":"999","MEAN_MOTION_DOT":"0.00000706","PERIOD":"95.592","ECCENTRICITY":"0.00014660","OBJECT_NAME":"STARLINK-2084","RCS_SIZE":"LARGE","MEAN_MOTION":"15.06406300","APOAPSIS":"548.210","CLASSIFICATION_TYPE":"U","MEAN_ELEMENT_THEORY":"SGP4","REV_AT_EPOCH":"8717","CENTER_NAME":"EARTH","ARG_OF_PERICENTER":"79.8240","LAUNCH_DATE":"2021-01-20","OBJECT_TYPE":"PAYLOAD","MEAN_ANOMALY":"280.2914","DECAY_DATE":null,"OBJECT_ID":"2021-005V","NORAD_CAT_ID":"47368","FILE":"3539281","RA_OF_ASC_NODE":"135.4969","TLE_LINE2":"2 47368  53.0539 135.4969 0001466  79.8240 280.2914 15.06406300 87173","INCLINATION":"53.0539","BSTAR":"0.00006628000000","SEMIMAJOR_AXIS":"6925.329","GP_ID":"210440614"}];
